{
  "type": "FeatureCollection",
  "features": [
    {
      "type": "Feature",
      "properties": {
        "norad_id": 66647,
        "name": "COSMOS 2597 (RODNIK-S 22)",
        "group": "last-30-days",
        "lat": 3.1244827725683466,
        "lon": 99.17492630205521,
        "alt_km": 1499.953160762052,
        "timestamp": "2025-12-23T18:59:30.756616+00:00",
        "meta_object_name": "COSMOS 2597 (RODNIK-S 22)",
        "meta_object_id": "2025-273A",
        "meta_epoch": "2025-12-23T04:30:31.161888",
        "meta_mean_motion": 12.41952133,
        "meta_eccentricity": 0.00076072,
        "meta_inclination": 82.4994,
        "meta_ra_of_asc_node": 279.9615,
        "meta_arg_of_pericenter": 261.701,
        "meta_mean_anomaly": 98.3207,
        "meta_ephemeris_type": 0,
        "meta_classification_type": "U",
        "meta_norad_cat_id": 66647,
        "meta_element_set_no": 999,
        "meta_rev_at_epoch": 343,
        "meta_bstar": 0.00018501124,
        "meta_mean_motion_dot": 3.5e-07,
        "meta_mean_motion_ddot": 0,
        "tle_line1": "1 66647U 25273A   25357.18786067  .00000035  00000+0  18501-3 0  9998",
        "tle_line2": "2 66647  82.4994 279.9615 0007607 261.7010  98.3207 12.41952133  3433"
      },
      "geometry": {
        "type": "Point",
        "coordinates": [
          99.17492630205521,
          3.1244827725683466
        ]
      }
    },
    {
      "type": "Feature",
      "properties": {
        "norad_id": 66648,
        "name": "COSMOS 2598 (RODNIK-S 23)",
        "group": "last-30-days",
        "lat": -80.11913999338668,
        "lon": 148.67879450401946,
        "alt_km": 1496.4166202727247,
        "timestamp": "2025-12-23T18:59:30.756635+00:00",
        "meta_object_name": "COSMOS 2598 (RODNIK-S 23)",
        "meta_object_id": "2025-273B",
        "meta_epoch": "2025-12-23T05:59:25.353600",
        "meta_mean_motion": 12.43233505,
        "meta_eccentricity": 0.00081548,
        "meta_inclination": 82.5032,
        "meta_ra_of_asc_node": 279.9114,
        "meta_arg_of_pericenter": 211.7728,
        "meta_mean_anomaly": 148.2861,
        "meta_ephemeris_type": 0,
        "meta_classification_type": "U",
        "meta_norad_cat_id": 66648,
        "meta_element_set_no": 999,
        "meta_rev_at_epoch": 344,
        "meta_bstar": 8.7796486e-05,
        "meta_mean_motion_dot": 2.2e-07,
        "meta_mean_motion_ddot": 0,
        "tle_line1": "1 66648U 25273B   25357.24959900  .00000022  00000+0  87796-4 0  9993",
        "tle_line2": "2 66648  82.5032 279.9114 0008154 211.7728 148.2861 12.43233505  3440"
      },
      "geometry": {
        "type": "Point",
        "coordinates": [
          148.67879450401946,
          -80.11913999338668
        ]
      }
    },
    {
      "type": "Feature",
      "properties": {
        "norad_id": 66649,
        "name": "COSMOS 2599 (RODNIK-S 24)",
        "group": "last-30-days",
        "lat": 52.982444052720886,
        "lon": 89.56613224663552,
        "alt_km": 1499.4620012039259,
        "timestamp": "2025-12-23T18:59:30.756644+00:00",
        "meta_object_name": "COSMOS 2599 (RODNIK-S 24)",
        "meta_object_id": "2025-273C",
        "meta_epoch": "2025-12-23T06:42:19.022112",
        "meta_mean_motion": 12.41151866,
        "meta_eccentricity": 0.00062122,
        "meta_inclination": 82.5049,
        "meta_ra_of_asc_node": 279.9371,
        "meta_arg_of_pericenter": 252.2184,
        "meta_mean_anomaly": 107.8217,
        "meta_ephemeris_type": 0,
        "meta_classification_type": "U",
        "meta_norad_cat_id": 66649,
        "meta_element_set_no": 999,
        "meta_rev_at_epoch": 344,
        "meta_bstar": 0.00082606824,
        "meta_mean_motion_dot": 1.22e-06,
        "meta_mean_motion_ddot": 0,
        "tle_line1": "1 66649U 25273C   25357.27938683  .00000122  00000+0  82607-3 0  9998",
        "tle_line2": "2 66649  82.5049 279.9371 0006212 252.2184 107.8217 12.41151866  3446"
      },
      "geometry": {
        "type": "Point",
        "coordinates": [
          89.56613224663552,
          52.982444052720886
        ]
      }
    },
    {
      "type": "Feature",
      "properties": {
        "norad_id": 66650,
        "name": "BEE-1000",
        "group": "last-30-days",
        "lat": -22.65247943648697,
        "lon": 101.52246887955387,
        "alt_km": 590.53899742871,
        "timestamp": "2025-12-23T18:59:30.756654+00:00",
        "meta_object_name": "BEE-1000",
        "meta_object_id": "2025-274A",
        "meta_epoch": "2025-12-23T05:12:21.997728",
        "meta_mean_motion": 14.91694831,
        "meta_eccentricity": 0.00109543,
        "meta_inclination": 97.7405,
        "meta_ra_of_asc_node": 284.2127,
        "meta_arg_of_pericenter": 212.7369,
        "meta_mean_anomaly": 147.3172,
        "meta_ephemeris_type": 0,
        "meta_classification_type": "U",
        "meta_norad_cat_id": 66650,
        "meta_element_set_no": 999,
        "meta_rev_at_epoch": 396,
        "meta_bstar": 0.00016874128,
        "meta_mean_motion_dot": 1.643e-05,
        "meta_mean_motion_ddot": 0,
        "tle_line1": "1 66650U 25274A   25357.21692127  .00001643  00000+0  16874-3 0  9997",
        "tle_line2": "2 66650  97.7405 284.2127 0010954 212.7369 147.3172 14.91694831  3961"
      },
      "geometry": {
        "type": "Point",
        "coordinates": [
          101.52246887955387,
          -22.65247943648697
        ]
      }
    },
    {
      "type": "Feature",
      "properties": {
        "norad_id": 66651,
        "name": "2025-274B",
        "group": "last-30-days",
        "lat": -33.73423338470342,
        "lon": 99.56855233530584,
        "alt_km": 590.5373706464379,
        "timestamp": "2025-12-23T18:59:30.756663+00:00",
        "meta_object_name": "2025-274B",
        "meta_object_id": "2025-274B",
        "meta_epoch": "2025-12-23T01:56:17.627712",
        "meta_mean_motion": 14.91867195,
        "meta_eccentricity": 0.00112002,
        "meta_inclination": 97.7401,
        "meta_ra_of_asc_node": 284.0819,
        "meta_arg_of_pericenter": 211.7357,
        "meta_mean_anomaly": 148.3188,
        "meta_ephemeris_type": 0,
        "meta_classification_type": "U",
        "meta_norad_cat_id": 66651,
        "meta_element_set_no": 999,
        "meta_rev_at_epoch": 394,
        "meta_bstar": 0.00041358123,
        "meta_mean_motion_dot": 4.128e-05,
        "meta_mean_motion_ddot": 0,
        "tle_line1": "1 66651U 25274B   25357.08075958  .00004128  00000+0  41358-3 0  9996",
        "tle_line2": "2 66651  97.7401 284.0819 0011200 211.7357 148.3188 14.91867195  3946"
      },
      "geometry": {
        "type": "Point",
        "coordinates": [
          99.56855233530584,
          -33.73423338470342
        ]
      }
    },
    {
      "type": "Feature",
      "properties": {
        "norad_id": 66652,
        "name": "2025-274C",
        "group": "last-30-days",
        "lat": -45.029487525438306,
        "lon": 96.96040887012367,
        "alt_km": 591.2029071884017,
        "timestamp": "2025-12-23T18:59:30.756674+00:00",
        "meta_object_name": "2025-274C",
        "meta_object_id": "2025-274C",
        "meta_epoch": "2025-12-22T17:50:23.159904",
        "meta_mean_motion": 14.91954648,
        "meta_eccentricity": 0.00107138,
        "meta_inclination": 97.7406,
        "meta_ra_of_asc_node": 283.7568,
        "meta_arg_of_pericenter": 219.8333,
        "meta_mean_anomaly": 140.21,
        "meta_ephemeris_type": 0,
        "meta_classification_type": "U",
        "meta_norad_cat_id": 66652,
        "meta_element_set_no": 999,
        "meta_rev_at_epoch": 389,
        "meta_bstar": 0.0003357438,
        "meta_mean_motion_dot": 3.347e-05,
        "meta_mean_motion_ddot": 0,
        "tle_line1": "1 66652U 25274C   25356.74332361  .00003347  00000+0  33574-3 0  9996",
        "tle_line2": "2 66652  97.7406 283.7568 0010713 219.8333 140.2100 14.91954648  3899"
      },
      "geometry": {
        "type": "Point",
        "coordinates": [
          96.96040887012367,
          -45.029487525438306
        ]
      }
    },
    {
      "type": "Feature",
      "properties": {
        "norad_id": 66653,
        "name": "2025-274D",
        "group": "last-30-days",
        "lat": -45.44851919244229,
        "lon": 96.84436692436967,
        "alt_km": 590.7082619347138,
        "timestamp": "2025-12-23T18:59:30.756685+00:00",
        "meta_object_name": "2025-274D",
        "meta_object_id": "2025-274D",
        "meta_epoch": "2025-12-22T01:44:29.360256",
        "meta_mean_motion": 14.91947485,
        "meta_eccentricity": 0.00116201,
        "meta_inclination": 97.7403,
        "meta_ra_of_asc_node": 283.0978,
        "meta_arg_of_pericenter": 219.0062,
        "meta_mean_anomaly": 141.0319,
        "meta_ephemeris_type": 0,
        "meta_classification_type": "U",
        "meta_norad_cat_id": 66653,
        "meta_element_set_no": 999,
        "meta_rev_at_epoch": 379,
        "meta_bstar": 0.00020975597,
        "meta_mean_motion_dot": 2.07e-05,
        "meta_mean_motion_ddot": 0,
        "tle_line1": "1 66653U 25274D   25356.07256204  .00002070  00000+0  20976-3 0  9998",
        "tle_line2": "2 66653  97.7403 283.0978 0011620 219.0062 141.0319 14.91947485  3795"
      },
      "geometry": {
        "type": "Point",
        "coordinates": [
          96.84436692436967,
          -45.44851919244229
        ]
      }
    }
  ]
}